[{"OBJECT_NAME":"STARLINK-31527","OBJECT_ID":"2024-036W","EPOCH":"2026-03-09T07:35:27.884544","MEAN_MOTION":15.30193496,"ECCENTRICITY":0.00012847,"INCLINATION":53.1588,"RA_OF_ASC_NODE":80.0367,"ARG_OF_PERICENTER":85.6358,"MEAN_ANOMALY":274.4789,"EPHEMERIS_TYPE":0,"CLASSIFICATION_TYPE":"U","NORAD_CAT_ID":59018,"ELEMENT_SET_NO":999,"REV_AT_EPOCH":11526,"BSTAR":-4.6739165e-5,"MEAN_MOTION_DOT":-1.743e-5,"MEAN_MOTION_DDOT":0},{"OBJECT_NAME":"KUIPER-00213","OBJECT_ID":"2026-030P","EPOCH":"2026-03-09T22:00:01.999584","MEAN_MOTION":15.32626943,"ECCENTRICITY":0.00152813,"INCLINATION":51.8816,"RA_OF_ASC_NODE":218.5142,"ARG_OF_PERICENTER":64.2462,"MEAN_ANOMALY":206.8369,"EPHEMERIS_TYPE":0,"CLASSIFICATION_TYPE":"U","NORAD_CAT_ID":67777,"ELEMENT_SET_NO":999,"REV_AT_EPOCH":502,"BSTAR":0.0016072376,"MEAN_MOTION_DOT":0.00051551,"MEAN_MOTION_DDOT":0}]
